HAWK-11A                
1 62382U 24247F   26068.51231358  .00009457  00000+0  34106-3 0  9991
2 62382  44.9941 114.3328 0005466 327.3713  32.6832 15.28849427 67741
STARLINK-33909          
1 63804U 25092A   26068.32277394  .00037012  00000+0  13471-2 0  9998
2 63804  42.9960 175.0437 0001468 151.3355 208.7577 15.27595619 48550
